[{"OBJECT_NAME":"TRANSPORTER-12 OBJECT AZ","OBJECT_ID":"2025-009AZ","EPOCH":"2026-03-09T17:02:46.667040","MEAN_MOTION":15.30349724,"ECCENTRICITY":9.87e-5,"INCLINATION":97.3981,"RA_OF_ASC_NODE":151.9913,"ARG_OF_PERICENTER":45.3581,"MEAN_ANOMALY":314.774,"EPHEMERIS_TYPE":0,"CLASSIFICATION_TYPE":"U","NORAD_CAT_ID":62656,"ELEMENT_SET_NO":999,"REV_AT_EPOCH":6379,"BSTAR":0.00054902545,"MEAN_MOTION_DOT":0.00016057,"MEAN_MOTION_DDOT":0},{"OBJECT_NAME":"STARLINK-35304","OBJECT_ID":"2025-245R","EPOCH":"2026-03-09T20:29:56.392224","MEAN_MOTION":15.30223002,"ECCENTRICITY":0.0002231,"INCLINATION":53.1587,"RA_OF_ASC_NODE":282.9916,"ARG_OF_PERICENTER":154.6324,"MEAN_ANOMALY":205.4787,"EPHEMERIS_TYPE":0,"CLASSIFICATION_TYPE":"U","NORAD_CAT_ID":66249,"ELEMENT_SET_NO":999,"REV_AT_EPOCH":2106,"BSTAR":0.0014180647,"MEAN_MOTION_DOT":0.00041908,"MEAN_MOTION_DDOT":0}]
